BEIDOU 3 (C01)          
1 36287U 10001A   22063.54932003 -.00000296  00000+0  00000+0 0  9993
2 36287   1.9025  47.8789 0002609  18.6410  73.8733  1.00269171 44461
BEIDOU 5 (C06)          
1 36828U 10036A   22063.07821575 -.00000157  00000+0  00000+0 0  9997
2 36828  54.1919 177.1948 0027518 182.2541 299.1697  1.00276746 42520
BEIDOU 6 (C04)          
1 37210U 10057A   22063.61516740 -.00000127  00000+0  00000+0 0  9998
2 37210   0.9792  54.1970 0003863 150.0657 339.5603  1.00270765 41587
BEIDOU 7 (C07)          
1 37256U 10068A   22063.33354185 -.00000181  00000+0  00000+0 0  9992
2 37256  50.3970 290.9037 0017716 185.1962 274.3878  1.00283147 41092
BEIDOU 8 (C08)          
1 37384U 11013A   22063.39947927 -.00000166  00000+0  00000+0 0  9996
2 37384  60.1447  55.2957 0019731 195.9393 163.1797  1.00283268 39963
BEIDOU 9 (C09)          
1 37763U 11038A   22063.55124866 -.00000093  00000+0  00000+0 0  9990
2 37763  54.4762 179.6692 0089820 225.7095  48.3982  1.00256668 38945
BEIDOU 10 (C10)         
1 37948U 11073A   22063.07091137 -.00000134  00000+0  00000+0 0  9991
2 37948  50.5114 290.5393 0076986 218.2631 134.4665  1.00276584 37696
BEIDOU 11 (C05)         
1 38091U 12008A   22063.60055816  .00000044  00000+0  00000+0 0  9992
2 38091   1.3347  64.2723 0013672 315.8108  56.8980  1.00272681 36787
BEIDOU 12 (C11)         
1 38250U 12018A   22063.59066551 -.00000111  00000+0  00000+0 0  9992
2 38250  56.7203 357.0232 0023249 257.5760 207.1296  1.86234434 67136
BEIDOU 13 (C12)         
1 38251U 12018B   22063.13650139 -.00000111  00000+0  00000+0 0  9994
2 38251  56.6388 356.3693 0014225 263.9532 300.5159  1.86234223 67126
BEIDOU 15 (C14)         
1 38775U 12050B   22063.07698712  .00000007  00000+0  00000+0 0  9996
2 38775  55.3383 115.2323 0013879 318.5731  42.6840  1.86231280 64502
BEIDOU 16 (C02)         
1 38953U 12059A   22063.53806890 -.00000190  00000+0  00000+0 0  9996
2 38953   1.7298  84.6182 0012834 285.2107  70.0650  1.00275747 34209
BEIDOU 17 (C31)         
1 40549U 15019A   22063.07381646 -.00000164  00000+0  00000+0 0  9996
2 40549  52.0631 313.9789 0035340 189.8214 139.9290  1.00264661 25375
BEIDOU 18 (C57)         
1 40748U 15037A   22063.35560623 -.00000112  00000+0  00000+0 0  9995
2 40748  55.8954 355.2916 0005360 354.5441 266.4130  1.86233299 44959
BEIDOU 19 (C58)         
1 40749U 15037B   22063.47028337 -.00000112  00000+0  00000+0 0  9990
2 40749  55.8966 355.2774 0006886 324.3105 148.4856  1.86232212 44959
BEIDOU 20 (C18)         
1 40938U 15053A   22063.07605257 -.00000110  00000+0  00000+0 0  9994
2 40938  51.6616 277.0793 0043454 192.7878 175.4425  1.00270197 23659
BEIDOU IGSO-6 (C13)     
1 41434U 16021A   22063.44727065 -.00000133  00000+0  00000+0 0  9990
2 41434  57.9467  53.9183 0043694 219.7715 143.7204  1.00262015 21789
BEIDOU-2 G7 (C03)       
1 41586U 16037A   22063.54338920 -.00000369  00000+0  00000+0 0  9995
2 41586   1.7446  68.0860 0008884 359.9503  40.3792  1.00269563 21097
BEIDOU-3 M1 (C19)       
1 43001U 17069A   22063.38397818  .00000006  00000+0  00000+0 0  9995
2 43001  55.4913 115.2083 0010916 285.8939  77.3658  1.86231635 29448
BEIDOU-3 M2 (C20)       
1 43002U 17069B   22063.40320044  .00000006  00000+0  00000+0 0  9996
2 43002  55.4915 115.2446 0008881 305.1425 114.1576  1.86231355 29435
BEIDOU-3 M3 (C27)       
1 43107U 18003A   22063.33764089 -.00000113  00000+0  00000+0 0  9994
2 43107  55.3433 356.2575 0004863  37.1123 144.2537  1.86232403 28196
BEIDOU-3 M4 (C28)       
1 43108U 18003B   22063.42145688 -.00000113  00000+0  00000+0 0  9993
2 43108  55.3370 356.2440 0003367 272.0039  10.0334  1.86230853 28194
BEIDOU-3 M5 (C21)       
1 43207U 18018A   22062.37301838  .00000011  00000+0  00000+0 0  9999
2 43207  55.4500 115.3598 0006020 322.5013  37.5399  1.86231369 27568
BEIDOU-3 M6 (C22)       
1 43208U 18018B   22062.43966905  .00000011  00000+0  00000+0 0  9999
2 43208  55.4500 115.3619 0009194 294.5801  65.4062  1.86231308 27561
BEIDOU-3 M7 (C29)       
1 43245U 18029A   22063.34972907 -.00000112  00000+0  00000+0 0  9995
2 43245  55.2624 354.0325 0001418 334.1757 125.6486  1.86232472 26735
BEIDOU-3 M8 (C30)       
1 43246U 18029B   22063.40952301 -.00000112  00000+0  10000-3 0  9994
2 43246  55.2595 354.0609 0005267 350.1656 196.1978  1.86232732 26727
BEIDOU IGSO-7 (C16)     
1 43539U 18057A   22063.48603898 -.00000153  00000+0  00000+0 0  9992
2 43539  55.0742 176.6363 0045688 223.8000  46.8767  1.00289572 13452
BEIDOU-3 M9 (C23)       
1 43581U 18062A   22062.71323286  .00000007  00000+0  00000+0 0  9997
2 43581  54.3100 235.7043 0001994 325.5396 324.7091  1.86231803 24459
BEIDOU-3 M10 (C24)      
1 43582U 18062B   22063.00894755  .00000008  00000+0  00000+0 0  9996
2 43582  54.3096 235.6838 0006683  24.2056 196.0014  1.86232120 24460
BEIDOU-3 M11 (C25)      
1 43602U 18067A   22062.40136667  .00000006  00000+0  00000+0 0  9996
2 43602  54.3909 234.3103 0007824  15.2375 199.1973  1.86231644 23949
BEIDOU-3 M12 (C26)      
1 43603U 18067B   22063.19789721  .00000008  00000+0  00000+0 0  9991
2 43603  54.3872 234.2496 0004761  11.8910 286.9766  1.86231523 23971
BEIDOU-3 M13 (C32)      
1 43622U 18072A   22063.14481818  .00000007  00000+0  00000+0 0  9998
2 43622  55.4174 114.8933 0007595 279.8209  13.0556  1.86231438 23480
BEIDOU-3 M14 (C33)      
1 43623U 18072B   22062.06489887  .00000012  00000+0  00000+0 0  9999
2 43623  55.4179 114.9219 0005172 299.9921  79.0862  1.86231479 23473
BEIDOU-3 M15 (C34)      
1 43647U 18078A   22062.61437315 -.00000112  00000+0  10000-3 0  9998
2 43647  55.1566 354.2258 0007602 355.9406 286.9535  1.86232710 22989
BEIDOU-3 M16 (C35)      
1 43648U 18078B   22063.29030264 -.00000112  00000+0  00000+0 0  9991
2 43648  55.1536 354.2089 0005434   3.5238 280.5354  1.86232169 23011
BEIDOU-3 G1 (C59)       
1 43683U 18085A   22063.52549403 -.00000295  00000+0  00000+0 0  9996
2 43683   0.8385 184.9564 0001515 346.1890 320.2956  1.00269154 12356
BEIDOU-3 M17 (C36)      
1 43706U 18093A   22063.01861278  .00000008  00000+0  00000+0 0  9993
2 43706  54.3919 235.5704 0007158 281.6383  78.2402  1.86231920 22370
BEIDOU-3 M18 (C37)      
1 43707U 18093B   22063.21184417  .00000009  00000+0  00000+0 0  9990
2 43707  54.3919 235.5550 0006721 319.5447 261.0055  1.86232048 22364
BEIDOU-3 IGSO-1 (C38)   
1 44204U 19023A   22063.02009469 -.00000200  00000+0  00000+0 0  9993
2 44204  56.4096  54.1020 0020760 205.4891  27.6040  1.00289492 10658
BEIDOU-2 G8             
1 44231U 19027A   22063.55010500 -.00000263  00000+0  00000+0 0  9992
2 44231   0.6170  70.2676 0005007 143.3789 291.1182  1.00274757 10373
BEIDOU-3 IGSO-2 (C39)   
1 44337U 19035A   22063.41351606 -.00000160  00000+0  00000+0 0  9994
2 44337  55.1137 172.6609 0022505 189.7275  67.0762  1.00285317  9991
BEIDOU-3 M23 (C45)      
1 44542U 19061A   22062.95404028  .00000008  00000+0  00000+0 0  9996
2 44542  54.6182 235.6941 0008120 353.5203   6.4284  1.86231276 16624
BEIDOU-3 M24 (C46)      
1 44543U 19061B   22063.44562251  .00000010  00000+0  00000+0 0  9998
2 44543  54.6158 235.6477 0005268 352.6206 248.0672  1.86231412 16622
BEIDOU-3 IGSO-3         
1 44709U 19073A   22063.54504634 -.00000161  00000+0  00000+0 0  9995
2 44709  57.4290 297.4698 0020103 173.7884   5.9001  1.00287486  8753
BEIDOU-3 M21            
1 44793U 19078A   22063.44899056 -.00000113  00000+0  10000-3 0  9999
2 44793  55.0059 354.2315 0007507   2.4178  74.1150  1.86232200 15498
BEIDOU-3 M22            
1 44794U 19078B   22063.23153065 -.00000112  00000+0  00000+0 0  9994
2 44794  54.9802 354.2322 0005432 357.6123 204.5861  1.86232704 15487
BEIDOU-3 M19            
1 44864U 19090A   22063.23922703  .00000006  00000+0  00000+0 0  9990
2 44864  55.3524 115.1060 0017904 267.6501 134.2231  1.86231789 15078
BEIDOU-3 M20            
1 44865U 19090B   22063.48167640  .00000005  00000+0  00000+0 0  9998
2 44865  55.3542 115.1293 0016036 280.7292  13.5793  1.86231702 15049
BEIDOU-3 G2             
1 45344U 20017A   22063.53728394 -.00000156  00000+0  00000+0 0  9995
2 45344   2.1445 347.0087 0002216  69.8900  18.7789  1.00273048  7563
BEIDOU-3 G3             
1 45807U 20040A   22063.59921470 -.00000370  00000+0  00000+0 0  9999
2 45807   1.6827 300.7674 0007736 348.6581 199.1316  1.00270024  6388
